STARLINK-38067          
1 69747U 26150J   26197.10764551  .00119054  00000+0  78833-3 0  9992
2 69747  97.2827  35.4963 0002913  37.7949 322.3520 15.75176361  3466
STARLINK-37988          
1 69748U 26150K   26197.10587870  .00095595  00000+0  63431-3 0  9991
2 69748  97.2831  35.4988 0001542  62.1969 297.9453 15.75201555  3466
STARLINK-37987          
1 69749U 26150L   26197.16668980 -.00113564  00000+0 -76965-3 0  9995
2 69749  97.2843  35.5735 0001439  86.8366 281.9064 15.75219739  3453
STARLINK-38037          
1 69750U 26150M   26197.08525206  .00176936  00000+0  90622-3 0  9997
2 69750  97.2827  35.5271 0002316  82.9718 277.1814 15.80805911  3465
STARLINK-38049          
1 69751U 26150N   26197.08422235  .00144501  00000+0  74326-3 0  9992
2 69751  97.2835  35.5292 0001531 184.8395 175.2858 15.80799505  3466
STARLINK-38029          
1 69752U 26150P   26197.16668980 -.00184383  00000+0 -12584-2 0  9992
2 69752  97.2843  35.6146 0001109  91.2441  11.4806 15.75259312  3453
STARLINK-37965          
1 69753U 26150Q   26197.16668980 -.00185228  00000+0 -12642-2 0  9997
2 69753  97.2842  35.5973 0001529  95.4869 329.2417 15.75259725  3452
STARLINK-38048          
1 69754U 26150R   26197.07810972  .00101955  00000+0  52570-3 0  9996
2 69754  97.2832  35.5381 0001076  77.3820 282.7568 15.80862642  3463
STARLINK-38006          
1 69755U 26150S   26197.16668980 -.00173135  00000+0 -11802-2 0  9990
2 69755  97.2839  35.6205 0000866 100.4394  16.2773 15.75257207  3453
STARLINK-38036          
1 69756U 26150T   26197.16668980 -.00317328  00000+0 -21931-2 0  9999
2 69756  97.2845  35.6379 0001261  92.1330  62.5817 15.75330234  3455
STARLINK-38058          
1 69757U 26150U   26197.07377067  .00028534  00000+0  14853-3 0  9995
2 69757  97.2792  35.5467 0004288  44.0598 316.1011 15.80904926  3464
STARLINK-38066          
1 69758U 26150V   26197.07361787  .00184873  00000+0  94651-3 0  9991
2 69758  97.2834  35.5460 0003117  70.3124 289.8480 15.80791274  3468
STARLINK-38035          
1 69759U 26150W   26197.07348838  .00191716  00000+0  98099-3 0  9998
2 69759  97.2827  35.5449 0001617  94.9089 265.2364 15.80789028  3466
STARLINK-38056          
1 69760U 26150X   26197.07002687  .00204220  00000+0  10436-2 0  9992
2 69760  97.2826  35.5497 0001233  95.1224 265.0185 15.80785396  3461
STARLINK-38069          
1 69761U 26150Y   26197.06656779  .00254739  00000+0  12923-2 0  9992
2 69761  97.2821  35.5542 0001414 123.8359 236.3043 15.80814969  3460
STARLINK-38019          
1 69762U 26150Z   26197.16668980 -.00185773  00000+0 -12681-2 0  9995
2 69762  97.2836  35.6224 0000957  85.3139  35.4077 15.75259800  3459
KUIPER-00258            
1 69763U 26151A   26197.11299067  .00535124  00000+0  13895-1 0  9992
2 69763  51.8670 176.1296 0011132 198.2664 161.7923 15.36227308  2150
KUIPER-00526            
1 69764U 26151B   26197.09715080  .00011621  00000+0  32271-3 0  9990
2 69764  51.8753 176.0319 0006174 142.3554 217.7866 15.37330364  2152
KUIPER-00558            
1 69765U 26151C   26197.16687308 -.00310377  00000+0 -90913-2 0  9998
2 69765  51.8750 175.7487 0006354 159.2548 200.8697 15.35900199  2165
KUIPER-00569            
1 69766U 26151D   26197.22556858 -.00002317  00000+0 -51556-4 0  9995
2 69766  51.8782 175.3931 0004479 147.0807 213.0460 15.37460959  2172
KUIPER-00589            
1 69767U 26151E   26196.96630347  .00008817  00000+0  24703-3 0  9994
2 69767  51.8735 176.6549 0006888 144.9377 215.2064 15.37385259  2133
KUIPER-00598            
1 69768U 26151F   26197.11283442  .00609621  00000+0  16100-1 0  9993
2 69768  51.8670 176.1303 0010567 192.8629 167.2089 15.35771235  2152
KUIPER-00604            
1 69769U 26151G   26197.15386360  .00011344  00000+0  30620-3 0  9995
2 69769  51.8794 175.6596 0002857 110.2219 249.9075 15.38247667  2164
KUIPER-00609            
1 69770U 26151H   26197.15011185  .00012470  00000+0  33121-3 0  9997
2 69770  51.8798 175.6362 0001262  46.8754 313.2339 15.38648827  2169
KUIPER-00611            
1 69771U 26151J   26196.95706867  .00012192  00000+0  32604-3 0  9999
2 69771  51.8793 176.5887 0001784 104.1990 255.9196 15.38461646  2138
KUIPER-00612            
1 69772U 26151K   26197.22151920  .00010900  00000+0  29743-3 0  9990
2 69772  51.8784 175.3660 0003764 118.0991 242.0377 15.37953442  2171
KUIPER-00614            
1 69773U 26151L   26197.15463780  .00011521  00000+0  31167-3 0  9996
2 69773  51.8794 175.6622 0002998 125.2901 234.8366 15.38160990  2168
KUIPER-00615            
1 69774U 26151M   26197.09795860  .00009642  00000+0  27039-3 0  9991
2 69774  51.8773 176.0351 0006130 150.0404 210.0934 15.37241221  2158
KUIPER-00616            
1 69775U 26151N   26197.21809424  .00011981  00000+0  32114-3 0  9997
2 69775  51.8783 175.3431 0003274 126.3880 233.7410 15.38406932  2177
KUIPER-00617            
1 69776U 26151P   26196.57284051  .00013764  00000+0  37470-3 0  9990
2 69776  51.8787 178.5159 0004112 138.0456 222.0846 15.37785877  2075
