OBJECT_NAME,OBJECT_ID,EPOCH,MEAN_MOTION,ECCENTRICITY,INCLINATION,RA_OF_ASC_NODE,ARG_OF_PERICENTER,MEAN_ANOMALY,EPHEMERIS_TYPE,CLASSIFICATION_TYPE,NORAD_CAT_ID,ELEMENT_SET_NO,REV_AT_EPOCH,BSTAR,MEAN_MOTION_DOT,MEAN_MOTION_DDOT
STARLINK-38067,2026-150J,2026-07-16T02:35:00.572064,15.75176361,.0002913,97.2827,35.4963,37.7949,322.3520,0,U,69747,999,346,.78833E-3,.119054E-2,0
STARLINK-37988,2026-150K,2026-07-16T02:32:27.919680,15.75201555,.0001542,97.2831,35.4988,62.1969,297.9453,0,U,69748,999,346,.63431E-3,.95595E-3,0
STARLINK-37987,2026-150L,2026-07-16T04:00:01.998720,15.75219739,.0001439,97.2843,35.5735,86.8366,281.9064,0,U,69749,999,345,-.76965E-3,-.113564E-2,0
STARLINK-38037,2026-150M,2026-07-16T02:02:45.777984,15.80805911,.0002316,97.2827,35.5271,82.9718,277.1814,0,U,69750,999,346,.90622E-3,.176936E-2,0
STARLINK-38049,2026-150N,2026-07-16T02:01:16.811040,15.80799505,.0001531,97.2835,35.5292,184.8395,175.2858,0,U,69751,999,346,.74326E-3,.144501E-2,0
STARLINK-38029,2026-150P,2026-07-16T04:00:01.998720,15.75259312,.0001109,97.2843,35.6146,91.2441,11.4806,0,U,69752,999,345,-.12584E-2,-.184383E-2,0
STARLINK-37965,2026-150Q,2026-07-16T04:00:01.998720,15.75259725,.0001529,97.2842,35.5973,95.4869,329.2417,0,U,69753,999,345,-.12642E-2,-.185228E-2,0
STARLINK-38048,2026-150R,2026-07-16T01:52:28.679808,15.80862642,.0001076,97.2832,35.5381,77.3820,282.7568,0,U,69754,999,346,.5257E-3,.101955E-2,0
STARLINK-38006,2026-150S,2026-07-16T04:00:01.998720,15.75257207,.0000866,97.2839,35.6205,100.4394,16.2773,0,U,69755,999,345,-.11802E-2,-.173135E-2,0
STARLINK-38036,2026-150T,2026-07-16T04:00:01.998720,15.75330234,.0001261,97.2845,35.6379,92.1330,62.5817,0,U,69756,999,345,-.21931E-2,-.317328E-2,0
STARLINK-38058,2026-150U,2026-07-16T01:46:13.785888,15.80904926,.0004288,97.2792,35.5467,44.0598,316.1011,0,U,69757,999,346,.14853E-3,.28534E-3,0
STARLINK-38066,2026-150V,2026-07-16T01:46:00.583968,15.80791274,.0003117,97.2834,35.5460,70.3124,289.8480,0,U,69758,999,346,.94651E-3,.184873E-2,0
STARLINK-38035,2026-150W,2026-07-16T01:45:49.396032,15.80789028,.0001617,97.2827,35.5449,94.9089,265.2364,0,U,69759,999,346,.98099E-3,.191716E-2,0
STARLINK-38056,2026-150X,2026-07-16T01:40:50.321568,15.80785396,.0001233,97.2826,35.5497,95.1224,265.0185,0,U,69760,999,346,.10436E-2,.20422E-2,0
STARLINK-38069,2026-150Y,2026-07-16T01:35:51.457056,15.80814969,.0001414,97.2821,35.5542,123.8359,236.3043,0,U,69761,999,346,.12923E-2,.254739E-2,0
STARLINK-38019,2026-150Z,2026-07-16T04:00:01.998720,15.75259800,.0000957,97.2836,35.6224,85.3139,35.4077,0,U,69762,999,345,-.12681E-2,-.185773E-2,0
KUIPER-00258,2026-151A,2026-07-16T02:42:42.393888,15.36227308,.0011132,51.8670,176.1296,198.2664,161.7923,0,U,69763,999,215,.13895E-1,.535124E-2,0
KUIPER-00526,2026-151B,2026-07-16T02:19:53.829120,15.37330364,.0006174,51.8753,176.0319,142.3554,217.7866,0,U,69764,999,215,.32271E-3,.11621E-3,0
KUIPER-00558,2026-151C,2026-07-16T04:00:17.834112,15.35900199,.0006354,51.8750,175.7487,159.2548,200.8697,0,U,69765,999,216,-.90913E-2,-.310377E-2,0
KUIPER-00569,2026-151D,2026-07-16T05:24:49.125312,15.37460959,.0004479,51.8782,175.3931,147.0807,213.0460,0,U,69766,999,217,-.51556E-4,-.2317E-4,0
KUIPER-00589,2026-151E,2026-07-15T23:11:28.619808,15.37385259,.0006888,51.8735,176.6549,144.9377,215.2064,0,U,69767,999,213,.24703E-3,.8817E-4,0
KUIPER-00598,2026-151F,2026-07-16T02:42:28.893888,15.35771235,.0010567,51.8670,176.1303,192.8629,167.2089,0,U,69768,999,215,.161E-1,.609621E-2,0
KUIPER-00604,2026-151G,2026-07-16T03:41:33.815040,15.38247667,.0002857,51.8794,175.6596,110.2219,249.9075,0,U,69769,999,216,.3062E-3,.11344E-3,0
KUIPER-00609,2026-151H,2026-07-16T03:36:09.663840,15.38648827,.0001262,51.8798,175.6362,46.8754,313.2339,0,U,69770,999,216,.33121E-3,.1247E-3,0
KUIPER-00611,2026-151J,2026-07-15T22:58:10.733088,15.38461646,.0001784,51.8793,176.5887,104.1990,255.9196,0,U,69771,999,213,.32604E-3,.12192E-3,0
KUIPER-00612,2026-151K,2026-07-16T05:18:59.258880,15.37953442,.0003764,51.8784,175.3660,118.0991,242.0377,0,U,69772,999,217,.29743E-3,.109E-3,0
KUIPER-00614,2026-151L,2026-07-16T03:42:40.705920,15.38160990,.0002998,51.8794,175.6622,125.2901,234.8366,0,U,69773,999,216,.31167E-3,.11521E-3,0
KUIPER-00615,2026-151M,2026-07-16T02:21:03.623040,15.37241221,.000613,51.8773,176.0351,150.0404,210.0934,0,U,69774,999,215,.27039E-3,.9642E-4,0
KUIPER-00616,2026-151N,2026-07-16T05:14:03.342336,15.38406932,.0003274,51.8783,175.3431,126.3880,233.7410,0,U,69775,999,217,.32114E-3,.11981E-3,0
KUIPER-00617,2026-151P,2026-07-15T13:44:53.420064,15.37785877,.0004112,51.8787,178.5159,138.0456,222.0846,0,U,69776,999,207,.3747E-3,.13764E-3,0
